start=new Date('2022-04-24T00:00:00.000Z').valueOf();
sats=[{"TLE_LINE2":"2 46081  53.0536 333.9126 0001364  99.2282 260.8862 15.06402719 95850","OBJECT_NAME":"STARLINK-1571","MEAN_ELEMENT_THEORY":"SGP4","APOAPSIS":"548.150","COUNTRY_CODE":"US","ECCENTRICITY":"0.00013640","GP_ID":"201879551","SITE":"AFETR","CENTER_NAME":"EARTH","MEAN_MOTION_DDOT":"0.0000000000000","BSTAR":"0.00019869000000","CLASSIFICATION_TYPE":"U","RA_OF_ASC_NODE":"333.9126","DECAY_DATE":null,"LAUNCH_DATE":"2020-08-07","NORAD_CAT_ID":"46081","OBJECT_ID":"2020-055BG","SEMIMAJOR_AXIS":"6925.340","REV_AT_EPOCH":"9585","TLE_LINE1":"1 46081U 20055BG  22113.54956078  .00002679  00000-0  19869-3 0  9994","REF_FRAME":"TEME","EPOCH":"2022-04-23T13:11:22.051392","MEAN_MOTION":"15.06402719","TIME_SYSTEM":"UTC","INCLINATION":"53.0536","MEAN_ANOMALY":"260.8862","MEAN_MOTION_DOT":"0.00002679","ARG_OF_PERICENTER":"99.2282","PERIOD":"95.592","RCS_SIZE":"LARGE","PERIAPSIS":"546.261","EPHEMERIS_TYPE":"0","OBJECT_TYPE":"PAYLOAD","ELEMENT_SET_NO":"999","FILE":"3412883"},{"TLE_LINE2":"2 46082  53.0562 335.0084 0001197  77.8472 282.2651 15.06396083 95820","MEAN_ELEMENT_THEORY":"SGP4","OBJECT_NAME":"STARLINK-1578","APOAPSIS":"548.055","COUNTRY_CODE":"US","ECCENTRICITY":"0.00011970","GP_ID":"201878800","SITE":"AFETR","CENTER_NAME":"EARTH","MEAN_MOTION_DDOT":"0.0000000000000","CLASSIFICATION_TYPE":"U","BSTAR":"0.00001246800000","RA_OF_ASC_NODE":"335.0084","DECAY_DATE":null,"NORAD_CAT_ID":"46082","LAUNCH_DATE":"2020-08-07","OBJECT_ID":"2020-055BH","SEMIMAJOR_AXIS":"6925.361","REV_AT_EPOCH":"9582","TLE_LINE1":"1 46082U 20055BH  22113.30628906 -.00000096  00000-0  12468-4 0  9996","REF_FRAME":"TEME","EPOCH":"2022-04-23T07:21:03.374784","MEAN_MOTION":"15.06396083","TIME_SYSTEM":"UTC","INCLINATION":"53.0562","MEAN_MOTION_DOT":"-0.00000096","MEAN_ANOMALY":"282.2651","ARG_OF_PERICENTER":"77.8472","PERIOD":"95.592","RCS_SIZE":"LARGE","PERIAPSIS":"546.397","EPHEMERIS_TYPE":"0","OBJECT_TYPE":"PAYLOAD","ELEMENT_SET_NO":"999","FILE":"3412883"},{"GP_ID":"201879050","ECCENTRICITY":"0.00013160","TLE_LINE2":"2 46083  53.0550 334.8346 0001316  71.4059 288.7073 15.06400418 95827","MEAN_ELEMENT_THEORY":"SGP4","OBJECT_NAME":"STARLINK-1579","APOAPSIS":"548.124","COUNTRY_CODE":"US","SEMIMAJOR_AXIS":"6925.347","REV_AT_EPOCH":"9582","LAUNCH_DATE":"2020-08-07","NORAD_CAT_ID":"46083","OBJECT_ID":"2020-055BJ","MEAN_MOTION_DDOT":"0.0000000000000","BSTAR":"0.00002311900000","CLASSIFICATION_TYPE":"U","DECAY_DATE":null,"RA_OF_ASC_NODE":"334.8346","SITE":"AFETR","CENTER_NAME":"EARTH","TIME_SYSTEM":"UTC","INCLINATION":"53.0550","MEAN_MOTION":"15.06400418","EPOCH":"2022-04-23T08:14:07.998432","TLE_LINE1":"1 46083U 20055BJ  22113.34314813  .00000063  00000-0  23119-4 0  9998","REF_FRAME":"TEME","OBJECT_TYPE":"PAYLOAD","ELEMENT_SET_NO":"999","FILE":"3412883","PERIAPSIS":"546.301","EPHEMERIS_TYPE":"0","PERIOD":"95.592","RCS_SIZE":"LARGE","MEAN_MOTION_DOT":"0.00000063","MEAN_ANOMALY":"288.7073","ARG_OF_PERICENTER":"71.4059"},{"GP_ID":"201878554","ECCENTRICITY":"0.00018190","OBJECT_NAME":"STARLINK-1585","MEAN_ELEMENT_THEORY":"SGP4","TLE_LINE2":"2 46117  53.0524 174.3947 0001819  53.9821 306.1336 15.06398649 92882","COUNTRY_CODE":"US","APOAPSIS":"548.477","SEMIMAJOR_AXIS":"6925.353","REV_AT_EPOCH":"9288","NORAD_CAT_ID":"46117","LAUNCH_DATE":"2020-08-18","OBJECT_ID":"2020-057A","MEAN_MOTION_DDOT":"0.0000000000000","RA_OF_ASC_NODE":"174.3947","DECAY_DATE":null,"BSTAR":"-0.00007496800000","CLASSIFICATION_TYPE":"U","SITE":"AFETR","CENTER_NAME":"EARTH","TIME_SYSTEM":"UTC","INCLINATION":"53.0524","MEAN_MOTION":"15.06398649","EPOCH":"2022-04-23T10:37:26.536800","TLE_LINE1":"1 46117U 20057A   22113.44266825 -.00001398  00000-0 -74968-4 0  9990","REF_FRAME":"TEME","OBJECT_TYPE":"PAYLOAD","ELEMENT_SET_NO":"999","FILE":"3412883","EPHEMERIS_TYPE":"0","PERIAPSIS":"545.958","PERIOD":"95.592","RCS_SIZE":"LARGE","MEAN_MOTION_DOT":"-0.00001398","MEAN_ANOMALY":"306.1336","ARG_OF_PERICENTER":"53.9821"},{"TLE_LINE1":"1 46118U 20057B   22113.51823337  .00000290  00000-0  38345-4 0  9993","REF_FRAME":"TEME","EPOCH":"2022-04-23T12:26:15.363168","MEAN_MOTION":"15.06390256","TIME_SYSTEM":"UTC","INCLINATION":"53.0540","MEAN_MOTION_DOT":"0.00000290","MEAN_ANOMALY":"305.9307","ARG_OF_PERICENTER":"54.1835","PERIOD":"95.593","RCS_SIZE":"LARGE","EPHEMERIS_TYPE":"0","PERIAPSIS":"546.103","OBJECT_TYPE":"PAYLOAD","FILE":"3412883","ELEMENT_SET_NO":"999","OBJECT_NAME":"STARLINK-1588","MEAN_ELEMENT_THEORY":"SGP4","TLE_LINE2":"2 46118  53.0540 194.0523 0001647  54.1835 305.9307 15.06390256 93890","APOAPSIS":"548.384","COUNTRY_CODE":"US","ECCENTRICITY":"0.00016470","GP_ID":"201879804","SITE":"AFETR","CENTER_NAME":"EARTH","MEAN_MOTION_DDOT":"0.0000000000000","DECAY_DATE":null,"RA_OF_ASC_NODE":"194.0523","CLASSIFICATION_TYPE":"U","BSTAR":"0.00003834500000","LAUNCH_DATE":"2020-08-18","NORAD_CAT_ID":"46118","OBJECT_ID":"2020-057B","SEMIMAJOR_AXIS":"6925.378","REV_AT_EPOCH":"9389"},{"BSTAR":"-0.00008560500000","CLASSIFICATION_TYPE":"U","DECAY_DATE":null,"RA_OF_ASC_NODE":"194.1164","MEAN_MOTION_DDOT":"0.0000000000000","CENTER_NAME":"EARTH","SITE":"AFETR","REV_AT_EPOCH":"9387","SEMIMAJOR_AXIS":"6925.358","OBJECT_ID":"2020-057C","LAUNCH_DATE":"2020-08-18","NORAD_CAT_ID":"46119","APOAPSIS":"548.444","COUNTRY_CODE":"US","TLE_LINE2":"2 46119  53.0530 194.1164 0001762  48.5444 311.5696 15.06396760 93871","OBJECT_NAME":"STARLINK-1593","MEAN_ELEMENT_THEORY":"SGP4","GP_ID":"201879555","ECCENTRICITY":"0.00017620","RCS_SIZE":"LARGE","PERIOD":"95.592","ARG_OF_PERICENTER":"48.5444","MEAN_ANOMALY":"311.5696","MEAN_MOTION_DOT":"-0.00001556","FILE":"3412883","ELEMENT_SET_NO":"999","OBJECT_TYPE":"PAYLOAD","PERIAPSIS":"546.003","EPHEMERIS_TYPE":"0","EPOCH":"2022-04-23T12:10:20.088480","REF_FRAME":"TEME","TLE_LINE1":"1 46119U 20057C   22113.50717695 -.00001556  00000-0 -85605-4 0  9991","INCLINATION":"53.0530","TIME_SYSTEM":"UTC","MEAN_MOTION":"15.06396760"},{"ECCENTRICITY":"0.00018100","GP_ID":"201878804","TLE_LINE2":"2 46120  53.0536 194.1790 0001810  47.5988 312.5154 15.06387073 93899","OBJECT_NAME":"STARLINK-1601","MEAN_ELEMENT_THEORY":"SGP4","APOAPSIS":"548.507","COUNTRY_CODE":"US","SEMIMAJOR_AXIS":"6925.388","REV_AT_EPOCH":"9389","NORAD_CAT_ID":"46120","LAUNCH_DATE":"2020-08-18","OBJECT_ID":"2020-057D","MEAN_MOTION_DDOT":"0.0000000000000","BSTAR":"-0.00028664000000","CLASSIFICATION_TYPE":"U","DECAY_DATE":null,"RA_OF_ASC_NODE":"194.1790","SITE":"AFETR","CENTER_NAME":"EARTH","TIME_SYSTEM":"UTC","INCLINATION":"53.0536","MEAN_MOTION":"15.06387073","EPOCH":"2022-04-23T11:49:05.824128","TLE_LINE1":"1 46120U 20057D   22113.49242852 -.00004547  00000-0 -28664-3 0  9993","REF_FRAME":"TEME","OBJECT_TYPE":"PAYLOAD","ELEMENT_SET_NO":"999","FILE":"3412883","PERIAPSIS":"546.000","EPHEMERIS_TYPE":"0","PERIOD":"95.593","RCS_SIZE":"LARGE","MEAN_MOTION_DOT":"-0.00004547","MEAN_ANOMALY":"312.5154","ARG_OF_PERICENTER":"47.5988"},{"GP_ID":"201879054","ECCENTRICITY":"0.00017090","TLE_LINE2":"2 46121  53.0534 174.3233 0001709  46.6923 313.4208 15.06388431 92883","OBJECT_NAME":"STARLINK-1602","MEAN_ELEMENT_THEORY":"SGP4","COUNTRY_CODE":"US","APOAPSIS":"548.433","SEMIMAJOR_AXIS":"6925.384","REV_AT_EPOCH":"9288","NORAD_CAT_ID":"46121","LAUNCH_DATE":"2020-08-18","OBJECT_ID":"2020-057E","MEAN_MOTION_DDOT":"0.0000000000000","CLASSIFICATION_TYPE":"U","BSTAR":"-0.00026744000000","DECAY_DATE":null,"RA_OF_ASC_NODE":"174.3233","SITE":"AFETR","CENTER_NAME":"EARTH","TIME_SYSTEM":"UTC","INCLINATION":"53.0534","MEAN_MOTION":"15.06388431","EPOCH":"2022-04-23T11:03:59.177376","TLE_LINE1":"1 46121U 20057E   22113.46110159 -.00004262  00000-0 -26744-3 0  9996","REF_FRAME":"TEME","OBJECT_TYPE":"PAYLOAD","FILE":"3412883","ELEMENT_SET_NO":"999","PERIAPSIS":"546.065","EPHEMERIS_TYPE":"0","PERIOD":"95.593","RCS_SIZE":"LARGE","MEAN_ANOMALY":"313.4208","MEAN_MOTION_DOT":"-0.00004262","ARG_OF_PERICENTER":"46.6923"},{"TLE_LINE1":"1 46122U 20057F   22113.47031686 -.00000039  00000-0  16310-4 0  9991","REF_FRAME":"TEME","EPOCH":"2022-04-23T11:17:15.376704","MEAN_MOTION":"15.06392434","TIME_SYSTEM":"UTC","INCLINATION":"53.0528","MEAN_MOTION_DOT":"-0.00000039","MEAN_ANOMALY":"301.1039","ARG_OF_PERICENTER":"59.0117","PERIOD":"95.593","RCS_SIZE":"LARGE","PERIAPSIS":"546.059","EPHEMERIS_TYPE":"0","OBJECT_TYPE":"PAYLOAD","ELEMENT_SET_NO":"999","FILE":"3412883","TLE_LINE2":"2 46122  53.0528 154.2625 0001700  59.0117 301.1039 15.06392434 94429","OBJECT_NAME":"STARLINK-1604","MEAN_ELEMENT_THEORY":"SGP4","APOAPSIS":"548.414","COUNTRY_CODE":"US","GP_ID":"201879305","ECCENTRICITY":"0.00017000","SITE":"AFETR","CENTER_NAME":"EARTH","MEAN_MOTION_DDOT":"0.0000000000000","BSTAR":"0.00001631000000","CLASSIFICATION_TYPE":"U","DECAY_DATE":null,"RA_OF_ASC_NODE":"154.2625","LAUNCH_DATE":"2020-08-18","NORAD_CAT_ID":"46122","OBJECT_ID":"2020-057F","SEMIMAJOR_AXIS":"6925.372","REV_AT_EPOCH":"9442"},{"TLE_LINE1":"1 46123U 20057G   22113.45557649  .00000046  00000-0  21980-4 0  9998","REF_FRAME":"TEME","EPOCH":"2022-04-23T10:56:01.808736","MEAN_MOTION":"15.06391531","TIME_SYSTEM":"UTC","INCLINATION":"53.0542","MEAN_MOTION_DOT":"0.00000046","MEAN_ANOMALY":"316.3701","ARG_OF_PERICENTER":"43.7450","PERIOD":"95.593","RCS_SIZE":"LARGE","PERIAPSIS":"545.816","EPHEMERIS_TYPE":"0","OBJECT_TYPE":"PAYLOAD","FILE":"3412883","ELEMENT_SET_NO":"999","TLE_LINE2":"2 46123  53.0542 154.3413 0002056  43.7450 316.3701 15.06391531 94440","MEAN_ELEMENT_THEORY":"SGP4","OBJECT_NAME":"STARLINK-1605","COUNTRY_CODE":"US","APOAPSIS":"548.663","GP_ID":"201880055","ECCENTRICITY":"0.00020560","SITE":"AFETR","CENTER_NAME":"EARTH","MEAN_MOTION_DDOT":"0.0000000000000","CLASSIFICATION_TYPE":"U","BSTAR":"0.00002198000000","DECAY_DATE":null,"RA_OF_ASC_NODE":"154.3413","LAUNCH_DATE":"2020-08-18","NORAD_CAT_ID":"46123","OBJECT_ID":"2020-057G","SEMIMAJOR_AXIS":"6925.375","REV_AT_EPOCH":"9444"}];
